OBJECT B                
1 51825U 22019B   25153.86135384  .00028396  00000+0  70430-3 0  9993
2 51825  97.3851 230.4284 0011608  79.5718 280.6836 15.40266704180863
